{
  "type": "FeatureCollection",
  "features": [
    {
      "type": "Feature",
      "properties": {
        "norad_id": 65729,
        "name": "DRAGONFLY",
        "group": "stations",
        "lat": 23.178606228887684,
        "lon": -13.825259264977783,
        "alt_km": 359.9439823581697,
        "timestamp": "2025-12-02T21:34:00.060560+00:00",
        "meta_object_name": "DRAGONFLY",
        "meta_object_id": "1998-067XH",
        "meta_epoch": "2025-12-01T23:30:55.051776",
        "meta_mean_motion": 15.67818176,
        "meta_eccentricity": 0.00064903,
        "meta_inclination": 51.6258,
        "meta_ra_of_asc_node": 190.6875,
        "meta_arg_of_pericenter": 211.6532,
        "meta_mean_anomaly": 148.4075,
        "meta_ephemeris_type": 0,
        "meta_classification_type": "U",
        "meta_norad_cat_id": 65729,
        "meta_element_set_no": 999,
        "meta_rev_at_epoch": 1147,
        "meta_bstar": 0.0011888513,
        "meta_mean_motion_dot": 0.00135201,
        "meta_mean_motion_ddot": 0,
        "tle_line1": "1 65729U 98067XH  25335.97980384  .00135201  00000+0  11889-2 0  9995",
        "tle_line2": "2 65729  51.6258 190.6875 0006490 211.6532 148.4075 15.67818176 11475"
      },
      "geometry": {
        "type": "Point",
        "coordinates": [
          -13.825259264977783,
          23.178606228887684
        ]
      }
    },
    {
      "type": "Feature",
      "properties": {
        "norad_id": 65730,
        "name": "1998-067XJ",
        "group": "stations",
        "lat": 49.94816302888363,
        "lon": -109.34705180137499,
        "alt_km": 205.96675485039304,
        "timestamp": "2025-12-02T21:34:00.060586+00:00",
        "meta_object_name": "1998-067XJ",
        "meta_object_id": "1998-067XJ",
        "meta_epoch": "2025-12-01T20:03:18.917568",
        "meta_mean_motion": 16.13832998,
        "meta_eccentricity": 0.00107559,
        "meta_inclination": 51.6109,
        "meta_ra_of_asc_node": 185.8826,
        "meta_arg_of_pericenter": 242.801,
        "meta_mean_anomaly": 117.191,
        "meta_ephemeris_type": 0,
        "meta_classification_type": "U",
        "meta_norad_cat_id": 65730,
        "meta_element_set_no": 999,
        "meta_rev_at_epoch": 1152,
        "meta_bstar": 0.0027370981,
        "meta_mean_motion_dot": 0.02710772,
        "meta_mean_motion_ddot": 0.014802185,
        "tle_line1": "1 65730U 98067XJ  25335.83563562  .02710772  14802-1  27371-2 0  9991",
        "tle_line2": "2 65730  51.6109 185.8826 0010755 242.8010 117.1910 16.13832998 11527"
      },
      "geometry": {
        "type": "Point",
        "coordinates": [
          -109.34705180137499,
          49.94816302888363
        ]
      }
    },
    {
      "type": "Feature",
      "properties": {
        "norad_id": 65731,
        "name": "1998-067XK",
        "group": "stations",
        "lat": 4.138182347055033,
        "lon": -169.64196996138776,
        "alt_km": 382.0125550559342,
        "timestamp": "2025-12-02T21:34:00.060601+00:00",
        "meta_object_name": "1998-067XK",
        "meta_object_id": "1998-067XK",
        "meta_epoch": "2025-12-02T07:44:12.532992",
        "meta_mean_motion": 15.63286457,
        "meta_eccentricity": 0.0005872,
        "meta_inclination": 51.6289,
        "meta_ra_of_asc_node": 189.9861,
        "meta_arg_of_pericenter": 185.6112,
        "meta_mean_anomaly": 174.4818,
        "meta_ephemeris_type": 0,
        "meta_classification_type": "U",
        "meta_norad_cat_id": 65731,
        "meta_element_set_no": 999,
        "meta_rev_at_epoch": 1151,
        "meta_bstar": 0.00095712,
        "meta_mean_motion_dot": 0.00090128,
        "meta_mean_motion_ddot": 0,
        "tle_line1": "1 65731U 98067XK  25336.32236728  .00090128  00000+0  95712-3 0  9990",
        "tle_line2": "2 65731  51.6289 189.9861 0005872 185.6112 174.4818 15.63286457 11511"
      },
      "geometry": {
        "type": "Point",
        "coordinates": [
          -169.64196996138776,
          4.138182347055033
        ]
      }
    },
    {
      "type": "Feature",
      "properties": {
        "norad_id": 65732,
        "name": "RSP-03",
        "group": "stations",
        "lat": -46.64044992752553,
        "lon": 63.60371819397427,
        "alt_km": 373.4990002140039,
        "timestamp": "2025-12-02T21:34:00.060611+00:00",
        "meta_object_name": "RSP-03",
        "meta_object_id": "1998-067XL",
        "meta_epoch": "2025-12-02T00:35:43.430208",
        "meta_mean_motion": 15.65401132,
        "meta_eccentricity": 0.00068166,
        "meta_inclination": 51.6275,
        "meta_ra_of_asc_node": 190.9915,
        "meta_arg_of_pericenter": 187.4004,
        "meta_mean_anomaly": 172.6892,
        "meta_ephemeris_type": 0,
        "meta_classification_type": "U",
        "meta_norad_cat_id": 65732,
        "meta_element_set_no": 999,
        "meta_rev_at_epoch": 1148,
        "meta_bstar": 0.0010736108,
        "meta_mean_motion_dot": 0.00110336,
        "meta_mean_motion_ddot": 0,
        "tle_line1": "1 65732U 98067XL  25336.02480822  .00110336  00000+0  10736-2 0  9990",
        "tle_line2": "2 65732  51.6275 190.9915 0006816 187.4004 172.6892 15.65401132 11487"
      },
      "geometry": {
        "type": "Point",
        "coordinates": [
          63.60371819397427,
          -46.64044992752553
        ]
      }
    },
    {
      "type": "Feature",
      "properties": {
        "norad_id": 65733,
        "name": "GHS-01",
        "group": "stations",
        "lat": -17.207684995131647,
        "lon": 171.41682558690565,
        "alt_km": 364.02932357641566,
        "timestamp": "2025-12-02T21:34:00.060622+00:00",
        "meta_object_name": "GHS-01",
        "meta_object_id": "1998-067XM",
        "meta_epoch": "2025-12-01T21:13:00.819264",
        "meta_mean_motion": 15.69713992,
        "meta_eccentricity": 0.00070578,
        "meta_inclination": 51.6283,
        "meta_ra_of_asc_node": 190.8036,
        "meta_arg_of_pericenter": 210.2397,
        "meta_mean_anomaly": 149.8194,
        "meta_ephemeris_type": 0,
        "meta_classification_type": "U",
        "meta_norad_cat_id": 65733,
        "meta_element_set_no": 999,
        "meta_rev_at_epoch": 1147,
        "meta_bstar": 0.0013342092,
        "meta_mean_motion_dot": 0.00164761,
        "meta_mean_motion_ddot": 0,
        "tle_line1": "1 65733U 98067XM  25335.88403726  .00164761  00000+0  13342-2 0  9999",
        "tle_line2": "2 65733  51.6283 190.8036 0007057 210.2397 149.8194 15.69713992 11472"
      },
      "geometry": {
        "type": "Point",
        "coordinates": [
          171.41682558690565,
          -17.207684995131647
        ]
      }
    },
    {
      "type": "Feature",
      "properties": {
        "norad_id": 65941,
        "name": "YOTSUBA-KULOVER",
        "group": "stations",
        "lat": -17.57036532248082,
        "lon": 174.84433206398677,
        "alt_km": 398.440259430221,
        "timestamp": "2025-12-02T21:34:00.060632+00:00",
        "meta_object_name": "YOTSUBA-KULOVER",
        "meta_object_id": "1998-067XN",
        "meta_epoch": "2025-12-02T00:06:26.525952",
        "meta_mean_motion": 15.57616304,
        "meta_eccentricity": 0.00022672,
        "meta_inclination": 51.6288,
        "meta_ra_of_asc_node": 193.8589,
        "meta_arg_of_pericenter": 162.3434,
        "meta_mean_anomaly": 197.7638,
        "meta_ephemeris_type": 0,
        "meta_classification_type": "U",
        "meta_norad_cat_id": 65941,
        "meta_element_set_no": 999,
        "meta_rev_at_epoch": 818,
        "meta_bstar": 0.00084730448,
        "meta_mean_motion_dot": 0.00063827,
        "meta_mean_motion_ddot": 0,
        "tle_line1": "1 65941U 98067XN  25336.00447368  .00063827  00000+0  84730-3 0  9996",
        "tle_line2": "2 65941  51.6288 193.8589 0002267 162.3434 197.7638 15.57616304  8186"
      },
      "geometry": {
        "type": "Point",
        "coordinates": [
          174.84433206398677,
          -17.57036532248082
        ]
      }
    },
    {
      "type": "Feature",
      "properties": {
        "norad_id": 65942,
        "name": "BOTAN",
        "group": "stations",
        "lat": -15.919748741121095,
        "lon": 21.972814992087866,
        "alt_km": 386.67737945376484,
        "timestamp": "2025-12-02T21:34:00.060642+00:00",
        "meta_object_name": "BOTAN",
        "meta_object_id": "1998-067XP",
        "meta_epoch": "2025-12-01T23:11:25.783296",
        "meta_mean_motion": 15.60127991,
        "meta_eccentricity": 0.00045427,
        "meta_inclination": 51.629,
        "meta_ra_of_asc_node": 193.6047,
        "meta_arg_of_pericenter": 166.4057,
        "meta_mean_anomaly": 193.706,
        "meta_ephemeris_type": 0,
        "meta_classification_type": "U",
        "meta_norad_cat_id": 65942,
        "meta_element_set_no": 999,
        "meta_rev_at_epoch": 818,
        "meta_bstar": 0.0011466978,
        "meta_mean_motion_dot": 0.00095633,
        "meta_mean_motion_ddot": 0,
        "tle_line1": "1 65942U 98067XP  25335.96627064  .00095633  00000+0  11467-2 0  9990",
        "tle_line2": "2 65942  51.6290 193.6047 0004542 166.4057 193.7060 15.60127991  8189"
      },
      "geometry": {
        "type": "Point",
        "coordinates": [
          21.972814992087866,
          -15.919748741121095
        ]
      }
    }
  ]
}